{
  "norad_id": 62869,
  "name": "STARLINK-32813",
  "history": [
    {
      "epoch": "2026-03-28T20:51:00.311040Z",
      "apogee_km": 476.45426897352536,
      "perigee_km": 473.87153437258166,
      "latitude_deg": 3.811933241375777e-05,
      "longitude_deg": -98.30058613643955,
      "height_km": 476.2817769805122,
      "semi_major_axis_km": 6853.299901673054,
      "eccentricity": 0.00018843,
      "inclination_deg": 53.1611,
      "raan_deg": 40.7337,
      "arg_perigee_deg": 99.877,
      "mean_anomaly_deg": 260.2444,
      "mean_motion_rev_day": 15.30217472
    },
    {
      "epoch": "2026-03-29T03:07:13.041120Z",
      "apogee_km": 476.2891482756204,
      "perigee_km": 474.0440060237461,
      "latitude_deg": 7.76972705512469e-05,
      "longitude_deg": 166.17619328543958,
      "height_km": 475.9287618074118,
      "semi_major_axis_km": 6853.303577149683,
      "eccentricity": 0.0001638,
      "inclination_deg": 53.1612,
      "raan_deg": 39.521,
      "arg_perigee_deg": 83.0662,
      "mean_anomaly_deg": 277.0526,
      "mean_motion_rev_day": 15.30216241
    },
    {
      "epoch": "2026-03-30T02:38:01.053024Z",
      "apogee_km": 476.1329149238545,
      "perigee_km": 474.34637669982476,
      "latitude_deg": -3.0706933606327926e-06,
      "longitude_deg": 167.95892565886166,
      "height_km": 476.1137356627717,
      "semi_major_axis_km": 6853.37664581184,
      "eccentricity": 0.00013034,
      "inclination_deg": 53.1618,
      "raan_deg": 34.9695,
      "arg_perigee_deg": 88.452,
      "mean_anomaly_deg": 271.663,
      "mean_motion_rev_day": 15.30191769
    },
    {
      "epoch": "2026-03-30T13:36:23.935680Z",
      "apogee_km": 476.3922885350703,
      "perigee_km": 474.03871021973373,
      "latitude_deg": 4.914732238351589e-06,
      "longitude_deg": 0.7894416963553289,
      "height_km": 476.20489798713555,
      "semi_major_axis_km": 6853.352499377402,
      "eccentricity": 0.00017171,
      "inclination_deg": 53.1621,
      "raan_deg": 32.846,
      "arg_perigee_deg": 94.4702,
      "mean_anomaly_deg": 265.6495,
      "mean_motion_rev_day": 15.30199856
    },
    {
      "epoch": "2026-03-30T19:52:36.547392Z",
      "apogee_km": 476.1576713240074,
      "perigee_km": 474.24860489513685,
      "latitude_deg": 3.520808975336096e-05,
      "longitude_deg": -94.73509096194445,
      "height_km": 476.19744862910767,
      "semi_major_axis_km": 6853.340138109572,
      "eccentricity": 0.00013928,
      "inclination_deg": 53.1619,
      "raan_deg": 31.6315,
      "arg_perigee_deg": 95.784,
      "mean_anomaly_deg": 264.332,
      "mean_motion_rev_day": 15.30203996
    },
    {
      "epoch": "2026-03-31T19:23:24.910944Z",
      "apogee_km": 476.7213419472573,
      "perigee_km": 473.7044973126376,
      "latitude_deg": -1.425023152213426e-05,
      "longitude_deg": -92.9507037093847,
      "height_km": 475.85207585928936,
      "semi_major_axis_km": 6853.349919629947,
      "eccentricity": 0.0002201,
      "inclination_deg": 53.1617,
      "raan_deg": 27.0831,
      "arg_perigee_deg": 80.1586,
      "mean_anomaly_deg": 279.9663,
      "mean_motion_rev_day": 15.3020072
    },
    {
      "epoch": "2026-04-01T12:37:59.695104Z",
      "apogee_km": 476.2290451258241,
      "perigee_km": 474.0853347032189,
      "latitude_deg": 6.116651309653698e-05,
      "longitude_deg": 4.358774727147134,
      "height_km": 475.87014390721043,
      "semi_major_axis_km": 6853.294189914521,
      "eccentricity": 0.0001564,
      "inclination_deg": 53.1622,
      "raan_deg": 23.7456,
      "arg_perigee_deg": 80.062,
      "mean_anomaly_deg": 280.0558,
      "mean_motion_rev_day": 15.30219385
    },
    {
      "epoch": "2026-04-02T12:08:47.421024Z",
      "apogee_km": 476.1387004959952,
      "perigee_km": 474.20003719037686,
      "latitude_deg": -1.6912879340304466e-05,
      "longitude_deg": 6.1439043363540815,
      "height_km": 476.15350541694835,
      "semi_major_axis_km": 6853.306368843186,
      "eccentricity": 0.00014144,
      "inclination_deg": 53.1617,
      "raan_deg": 19.1953,
      "arg_perigee_deg": 95.0938,
      "mean_anomaly_deg": 265.0224,
      "mean_motion_rev_day": 15.30215306
    },
    {
      "epoch": "2026-04-02T23:07:09.139008Z",
      "apogee_km": 475.87922617180175,
      "perigee_km": 474.29270505526347,
      "latitude_deg": -3.426376871162181e-05,
      "longitude_deg": -161.02063262440112,
      "height_km": 476.23944445153535,
      "semi_major_axis_km": 6853.222965613532,
      "eccentricity": 0.00011575,
      "inclination_deg": 53.1615,
      "raan_deg": 17.0719,
      "arg_perigee_deg": 108.7503,
      "mean_anomaly_deg": 251.3623,
      "mean_motion_rev_day": 15.3024324
    },
    {
      "epoch": "2026-04-03T03:49:18.638400Z",
      "apogee_km": 475.94869463640407,
      "perigee_km": 474.35448264491515,
      "latitude_deg": 3.0240447896530196e-05,
      "longitude_deg": 127.33660413591821,
      "height_km": 476.20164736258596,
      "semi_major_axis_km": 6853.288588640659,
      "eccentricity": 0.00011631,
      "inclination_deg": 53.1608,
      "raan_deg": 16.1618,
      "arg_perigee_deg": 100.9727,
      "mean_anomaly_deg": 259.1405,
      "mean_motion_rev_day": 15.30221261
    },
    {
      "epoch": "2026-04-04T11:10:23.552832Z",
      "apogee_km": 475.9392341063549,
      "perigee_km": 474.32501509674694,
      "latitude_deg": -3.2993882048348546e-05,
      "longitude_deg": 9.711624904736963,
      "height_km": 476.40471644119555,
      "semi_major_axis_km": 6853.269124601551,
      "eccentricity": 0.00011777,
      "inclination_deg": 53.1603,
      "raan_deg": 10.0949,
      "arg_perigee_deg": 117.6191,
      "mean_anomaly_deg": 242.4929,
      "mean_motion_rev_day": 15.3022778
    },
    {
      "epoch": "2026-04-05T10:41:10.501152Z",
      "apogee_km": 475.2813947216182,
      "perigee_km": 474.83415523060285,
      "latitude_deg": -5.5026311010458426e-05,
      "longitude_deg": 11.499842894748715,
      "height_km": 475.7764028430683,
      "semi_major_axis_km": 6853.19477497611,
      "eccentricity": 3.263e-05,
      "inclination_deg": 53.1601,
      "raan_deg": 5.5444,
      "arg_perigee_deg": 36.0107,
      "mean_anomaly_deg": 324.0915,
      "mean_motion_rev_day": 15.30252682
    },
    {
      "epoch": "2026-04-05T16:57:22.586688Z",
      "apogee_km": 475.45800556419726,
      "perigee_km": 474.63836461606024,
      "latitude_deg": -8.3456436518567e-06,
      "longitude_deg": -84.02157992019474,
      "height_km": 475.6834444246001,
      "semi_major_axis_km": 6853.1851850901285,
      "eccentricity": 5.98e-05,
      "inclination_deg": 53.1601,
      "raan_deg": 4.3308,
      "arg_perigee_deg": 49.9095,
      "mean_anomaly_deg": 310.1958,
      "mean_motion_rev_day": 15.30255894
    },
    {
      "epoch": "2026-04-06T00:47:39.198912Z",
      "apogee_km": 476.09559348189396,
      "perigee_km": 474.46831768508036,
      "latitude_deg": -6.014257509291901e-05,
      "longitude_deg": 156.57007020082017,
      "height_km": 476.175959383256,
      "semi_major_axis_km": 6853.418955583487,
      "eccentricity": 0.00011872,
      "inclination_deg": 53.1597,
      "raan_deg": 2.8136,
      "arg_perigee_deg": 89.7076,
      "mean_anomaly_deg": 270.406,
      "mean_motion_rev_day": 15.30177599
    },
    {
      "epoch": "2026-04-07T00:18:28.391904Z",
      "apogee_km": 476.0476340300802,
      "perigee_km": 474.3260790773138,
      "latitude_deg": -1.3865281114796257e-05,
      "longitude_deg": 158.3494595464655,
      "height_km": 476.15606722608,
      "semi_major_axis_km": 6853.323856553697,
      "eccentricity": 0.0001256,
      "inclination_deg": 53.1596,
      "raan_deg": 358.2636,
      "arg_perigee_deg": 94.7413,
      "mean_anomaly_deg": 265.3731,
      "mean_motion_rev_day": 15.30209449
    },
    {
      "epoch": "2026-04-07T20:41:09.607200Z",
      "apogee_km": 476.161456283171,
      "perigee_km": 474.30830452671034,
      "latitude_deg": 2.007765081514192e-05,
      "longitude_deg": -152.10794751334745,
      "height_km": 476.0356076474126,
      "semi_major_axis_km": 6853.37188040494,
      "eccentricity": 0.0001352,
      "inclination_deg": 53.1588,
      "raan_deg": 354.3148,
      "arg_perigee_deg": 83.9839,
      "mean_anomaly_deg": 276.1316,
      "mean_motion_rev_day": 15.30193365
    },
    {
      "epoch": "2026-04-07T23:49:16.205088Z",
      "apogee_km": 476.2842012269921,
      "perigee_km": 474.2081743917397,
      "latitude_deg": 5.888658412065067e-05,
      "longitude_deg": 160.1350331212,
      "height_km": 476.15688130991754,
      "semi_major_axis_km": 6853.383187809365,
      "eccentricity": 0.00015146,
      "inclination_deg": 53.1602,
      "raan_deg": 353.714,
      "arg_perigee_deg": 90.7148,
      "mean_anomaly_deg": 269.4027,
      "mean_motion_rev_day": 15.30189578
    },
    {
      "epoch": "2026-04-09T19:42:47.238912Z",
      "apogee_km": 475.9957490036586,
      "perigee_km": 474.5469384797916,
      "latitude_deg": 1.576888037552508e-05,
      "longitude_deg": -148.5423905947896,
      "height_km": 476.19085946334286,
      "semi_major_axis_km": 6853.408343741725,
      "eccentricity": 0.0001057,
      "inclination_deg": 53.1611,
      "raan_deg": 345.2185,
      "arg_perigee_deg": 91.6646,
      "mean_anomaly_deg": 268.4476,
      "mean_motion_rev_day": 15.30181153
    },
    {
      "epoch": "2026-04-09T22:50:53.860128Z",
      "apogee_km": 475.664431977395,
      "perigee_km": 474.9886804707521,
      "latitude_deg": 4.072186634252648e-05,
      "longitude_deg": 163.69428225397684,
      "height_km": 475.95109565120504,
      "semi_major_axis_km": 6853.463556224074,
      "eccentricity": 4.93e-05,
      "inclination_deg": 53.1608,
      "raan_deg": 344.6115,
      "arg_perigee_deg": 35.5529,
      "mean_anomaly_deg": 324.5505,
      "mean_motion_rev_day": 15.30162662
    }
  ]
}